OBJECT_NAME,OBJECT_ID,EPOCH,MEAN_MOTION,ECCENTRICITY,INCLINATION,RA_OF_ASC_NODE,ARG_OF_PERICENTER,MEAN_ANOMALY,EPHEMERIS_TYPE,CLASSIFICATION_TYPE,NORAD_CAT_ID,ELEMENT_SET_NO,REV_AT_EPOCH,BSTAR,MEAN_MOTION_DOT,MEAN_MOTION_DDOT
CUBEBUG-2 (LO-74),2013-066AA,2026-07-13T07:40:33.340512,14.93959309,.0055889,97.8910,143.4139,301.7151,57.8628,0,U,39440,999,68089,.18121969E-3,.1926E-4,0
FUNCUBE-1 (AO-73),2013-066AE,2026-07-13T04:07:27.865920,15.09803151,.00380868,97.8287,166.1678,114.1842,246.3375,0,U,39444,999,68358,.22375131E-3,.3608E-4,0
UWE-3,2013-066AG,2026-07-12T19:32:08.748096,14.97190018,.004751,97.8701,150.0656,232.8178,126.8701,0,U,39446,999,68141,.16916257E-3,.1937E-4,0
UNISAT-6,2014-033C,2026-07-12T21:11:28.620960,14.88361311,.00443626,97.7905,346.1482,345.5085,14.4856,0,U,40012,999,64998,.13622749E-3,.1227E-4,0
DUCHIFAT-1,2014-033M,2026-07-12T16:27:26.176896,15.70510170,.00021648,98.0440,256.5455,257.9613,102.1405,0,U,40021,999,65974,.89145614E-3,.110396E-2,0
QB50P1,2014-033R,2026-07-12T12:29:54.904704,15.18640557,.00102199,98.0964,206.4495,132.7489,227.4606,0,U,40025,999,65687,.25721199E-3,.5256E-4,0
LILACSAT-2,2015-049K,2026-07-13T06:11:14.385696,15.52311882,.00083223,97.4628,232.1008,147.2345,212.9425,0,U,40908,999,59979,.19947934E-3,.12053E-3,0
FOX-1A (AO-85),2015-058D,2026-07-13T07:25:39.339840,14.91081487,.0132199,64.7723,197.7955,46.5234,314.6780,0,U,40967,999,11746,.15967051E-3,.1693E-4,0
CAS-2T & KS-1Q,2016-066G,2026-07-13T05:05:23.360352,14.44767960,.03423502,98.3814,269.6505,50.7667,312.3386,0,U,41847,999,50855,.94681853E-4,.617E-5,0
RADFXSAT (FOX-1B),2017-073E,2026-07-13T01:39:12.117600,15.13044164,.01481375,97.4673,60.7567,238.8927,119.7700,0,U,43017,999,46930,.17409731E-3,.3953E-4,0
DIWATA-2B,2018-084H,2026-07-13T05:51:05.875200,15.00558401,.00129446,98.1217,31.5932,90.2808,269.9897,0,U,43678,999,42012,.95376242E-4,.1139E-4,0
ES'HAIL 2,2018-090A,2026-07-13T06:44:18.386304,1.00269877,.00021653,0.0035,116.9627,43.0890,257.9676,0,U,43700,999,2793,0,.141E-5,0
FOX-1CLIFF (AO-95),2018-099N,2026-07-13T03:48:48.256704,15.27248870,.00071002,97.4377,254.3164,248.3656,111.6827,0,U,43770,999,41718,.288771E-3,.7642E-4,0
ITASAT,2018-099AE,2026-07-13T02:30:20.916864,15.19367142,.00107978,97.4018,245.1017,258.8384,101.1638,0,U,43786,999,41684,.19803325E-3,.4125E-4,0
JY1SAT (JO-97),2018-099AX,2026-07-11T16:29:36.040416,15.34443331,.00065178,97.4124,255.6172,168.9842,191.1545,0,U,43803,999,41738,.301087E-3,.9972E-4,0
UWE-4,2018-111E,2026-07-12T18:23:27.129408,15.47716069,.00057472,97.5844,123.3656,204.5147,155.5830,0,U,43880,999,41473,.53441815E-3,.27634E-3,0
TIANYAN 01,2019-093C,2026-07-13T07:06:39.111264,14.86560696,.00137468,97.7528,265.8906,7.8840,352.2589,0,U,44881,999,35529,.11024631E-3,.924E-5,0
RS-44 & BREEZE-KM R/B,2019-096E,2026-07-13T06:34:24.635136,12.79748945,.02185523,82.5240,322.3706,83.4628,279.1302,0,U,44909,999,30568,-.40731225E-4,.3E-7,0
SALSAT,2020-068K,2026-07-12T21:56:02.165280,15.30153171,.00089225,97.8853,198.5521,201.3461,158.7407,0,U,46495,999,31929,.16824237E-3,.4828E-4,0
XW-3 (CAS-9),2021-131B,2026-07-13T07:04:34.250304,14.41380696,.00047075,98.4988,286.5437,35.6709,324.4794,0,U,50466,999,23887,.79345963E-4,.213E-5,0
GREENCUBE (IO-117),2022-080E,2026-07-12T17:00:29.177856,6.42583319,.00090302,70.1415,289.3709,284.1311,75.8345,0,U,53109,999,9370,0,-.3E-7,0
UMKA 1 (RS40S),2023-091G,2026-07-13T06:40:34.240512,15.21108338,.00132302,97.5041,252.8775,35.8443,324.3678,0,U,57172,999,16797,.14950806E-3,.3262E-4,0
CUBESX-HSE 3 (RS42S),2023-091N,2026-07-13T05:49:35.964768,15.31854227,.00098695,97.5085,260.1684,9.0302,351.1115,0,U,57178,999,16841,.25268829E-3,.7703E-4,0
MONITOR-3 (RS58S),2023-091Q,2026-07-13T06:14:56.593536,15.28349287,.0011205,97.5076,257.9045,16.5924,343.5680,0,U,57180,999,16827,.22891606E-3,.6254E-4,0
MONITOR-4 (RS57S),2023-091S,2026-07-13T07:16:58.164672,15.28435958,.00111961,97.5070,257.9205,16.7048,343.4558,0,U,57182,999,16828,.22222168E-3,.6085E-4,0
MONITOR-2 (RS39S),2023-091U,2026-07-13T06:24:10.834848,15.19143959,.00115823,97.5063,252.3826,30.3531,329.8372,0,U,57184,999,16791,.13189813E-3,.2706E-4,0
SVYATOBOR 1 (RS60S),2023-091X,2026-07-13T06:34:45.650208,15.27043244,.00089397,97.5082,258.2407,11.5167,348.6275,0,U,57187,999,16829,.19677218E-3,.515E-4,0
VIZARD-METEO (RS38S),2023-091Z,2026-07-13T06:19:52.135968,15.36836081,.00058318,97.5086,264.2845,347.6613,12.4487,0,U,57189,999,16869,.29129394E-3,.10411E-3,0
POLYTECH-UNIVERSE 3 (RS46S),2023-091AB,2026-07-13T05:23:24.184608,15.19355796,.00162264,97.5037,251.8448,44.1679,316.0848,0,U,57191,999,16790,.1442338E-3,.2989E-4,0
UTMN 2 (RS27S),2023-091AP,2026-07-13T05:54:41.477760,15.32672434,.00069227,97.5081,261.8374,357.4678,2.6527,0,U,57203,999,16853,.24093713E-3,.7526E-4,0
